{
  "type": "FeatureCollection",
  "features": [
    {
      "type": "Feature",
      "properties": {
        "norad_id": 30250,
        "name": "FENGYUN 1C DEB",
        "group": "fengyun-1c-debris",
        "lat": -32.60833813102094,
        "lon": 151.23278403238442,
        "alt_km": 846.3306068229076,
        "timestamp": "2025-12-10T20:49:52.828510+00:00",
        "meta_object_name": "FENGYUN 1C DEB",
        "meta_object_id": "1999-025XK",
        "meta_epoch": "2025-12-10T10:17:34.116576",
        "meta_mean_motion": 14.01621582,
        "meta_eccentricity": 0.00684475,
        "meta_inclination": 98.7542,
        "meta_ra_of_asc_node": 336.4685,
        "meta_arg_of_pericenter": 229.9492,
        "meta_mean_anomaly": 288.7715,
        "meta_ephemeris_type": 0,
        "meta_classification_type": "U",
        "meta_norad_cat_id": 30250,
        "meta_element_set_no": 999,
        "meta_rev_at_epoch": 96459,
        "meta_bstar": 0.00060576292,
        "meta_mean_motion_dot": 8.94e-06,
        "meta_mean_motion_ddot": 0,
        "tle_line1": "1 30250U 99025XK  25344.42886709  .00000894  00000+0  60576-3 0  9994",
        "tle_line2": "2 30250  98.7542 336.4685 0068447 229.9492 288.7715 14.01621582964599"
      },
      "geometry": {
        "type": "Point",
        "coordinates": [
          151.23278403238442,
          -32.60833813102094
        ]
      }
    },
    {
      "type": "Feature",
      "properties": {
        "norad_id": 30251,
        "name": "FENGYUN 1C DEB",
        "group": "fengyun-1c-debris",
        "lat": 80.60002511933766,
        "lon": 77.39886825750187,
        "alt_km": 803.2508230637704,
        "timestamp": "2025-12-10T20:49:52.828520+00:00",
        "meta_object_name": "FENGYUN 1C DEB",
        "meta_object_id": "1999-025XL",
        "meta_epoch": "2025-12-10T12:08:16.787040",
        "meta_mean_motion": 14.29295354,
        "meta_eccentricity": 0.00518394,
        "meta_inclination": 99.0487,
        "meta_ra_of_asc_node": 182.7408,
        "meta_arg_of_pericenter": 336.7727,
        "meta_mean_anomaly": 52.4716,
        "meta_ephemeris_type": 0,
        "meta_classification_type": "U",
        "meta_norad_cat_id": 30251,
        "meta_element_set_no": 999,
        "meta_rev_at_epoch": 98110,
        "meta_bstar": 0.00071692345,
        "meta_mean_motion_dot": 1.803e-05,
        "meta_mean_motion_ddot": 0,
        "tle_line1": "1 30251U 99025XL  25344.50574985  .00001803  00000+0  71692-3 0  9996",
        "tle_line2": "2 30251  99.0487 182.7408 0051839 336.7727  52.4716 14.29295354981109"
      },
      "geometry": {
        "type": "Point",
        "coordinates": [
          77.39886825750187,
          80.60002511933766
        ]
      }
    },
    {
      "type": "Feature",
      "properties": {
        "norad_id": 30252,
        "name": "FENGYUN 1C DEB",
        "group": "fengyun-1c-debris",
        "lat": 81.15248176873294,
        "lon": -81.41167234583286,
        "alt_km": 897.2089679194587,
        "timestamp": "2025-12-10T20:49:52.828530+00:00",
        "meta_object_name": "FENGYUN 1C DEB",
        "meta_object_id": "1999-025XM",
        "meta_epoch": "2025-12-10T12:37:13.592064",
        "meta_mean_motion": 14.0970486,
        "meta_eccentricity": 0.00658941,
        "meta_inclination": 98.7435,
        "meta_ra_of_asc_node": 359.6272,
        "meta_arg_of_pericenter": 247.9684,
        "meta_mean_anomaly": 265.7178,
        "meta_ephemeris_type": 0,
        "meta_classification_type": "U",
        "meta_norad_cat_id": 30252,
        "meta_element_set_no": 999,
        "meta_rev_at_epoch": 96934,
        "meta_bstar": 0.00066237497,
        "meta_mean_motion_dot": 1.142e-05,
        "meta_mean_motion_ddot": 0,
        "tle_line1": "1 30252U 99025XM  25344.52585176  .00001142  00000+0  66237-3 0  9998",
        "tle_line2": "2 30252  98.7435 359.6272 0065894 247.9684 265.7178 14.09704860969342"
      },
      "geometry": {
        "type": "Point",
        "coordinates": [
          -81.41167234583286,
          81.15248176873294
        ]
      }
    },
    {
      "type": "Feature",
      "properties": {
        "norad_id": 30253,
        "name": "FENGYUN 1C DEB",
        "group": "fengyun-1c-debris",
        "lat": 48.756898416150854,
        "lon": -96.79297456722807,
        "alt_km": 963.4627626388256,
        "timestamp": "2025-12-10T20:49:52.828540+00:00",
        "meta_object_name": "FENGYUN 1C DEB",
        "meta_object_id": "1999-025XN",
        "meta_epoch": "2025-12-09T06:02:04.288128",
        "meta_mean_motion": 13.73162746,
        "meta_eccentricity": 0.0221741,
        "meta_inclination": 98.752,
        "meta_ra_of_asc_node": 71.6082,
        "meta_arg_of_pericenter": 50.5688,
        "meta_mean_anomaly": 10.4331,
        "meta_ephemeris_type": 0,
        "meta_classification_type": "U",
        "meta_norad_cat_id": 30253,
        "meta_element_set_no": 999,
        "meta_rev_at_epoch": 93966,
        "meta_bstar": 0.0024623,
        "meta_mean_motion_dot": 2.682e-05,
        "meta_mean_motion_ddot": 0,
        "tle_line1": "1 30253U 99025XN  25343.25143852  .00002682  00000+0  24623-2 0  9991",
        "tle_line2": "2 30253  98.7520  71.6082 0221741  50.5688  10.4331 13.73162746939664"
      },
      "geometry": {
        "type": "Point",
        "coordinates": [
          -96.79297456722807,
          48.756898416150854
        ]
      }
    },
    {
      "type": "Feature",
      "properties": {
        "norad_id": 30257,
        "name": "FENGYUN 1C DEB",
        "group": "fengyun-1c-debris",
        "lat": 81.08798538024223,
        "lon": -95.6564373180676,
        "alt_km": 811.3328894703864,
        "timestamp": "2025-12-10T20:49:52.828551+00:00",
        "meta_object_name": "FENGYUN 1C DEB",
        "meta_object_id": "1999-025XS",
        "meta_epoch": "2025-12-10T10:55:47.182080",
        "meta_mean_motion": 14.0972205,
        "meta_eccentricity": 0.00596813,
        "meta_inclination": 98.7495,
        "meta_ra_of_asc_node": 343.0838,
        "meta_arg_of_pericenter": 105.6026,
        "meta_mean_anomaly": 50.3149,
        "meta_ephemeris_type": 0,
        "meta_classification_type": "U",
        "meta_norad_cat_id": 30257,
        "meta_element_set_no": 999,
        "meta_rev_at_epoch": 97185,
        "meta_bstar": 0.00025195825,
        "meta_mean_motion_dot": 4.07e-06,
        "meta_mean_motion_ddot": 0,
        "tle_line1": "1 30257U 99025XS  25344.45540720  .00000407  00000+0  25196-3 0  9993",
        "tle_line2": "2 30257  98.7495 343.0838 0059681 105.6026  50.3149 14.09722050971851"
      },
      "geometry": {
        "type": "Point",
        "coordinates": [
          -95.6564373180676,
          81.08798538024223
        ]
      }
    },
    {
      "type": "Feature",
      "properties": {
        "norad_id": 30259,
        "name": "FENGYUN 1C DEB",
        "group": "fengyun-1c-debris",
        "lat": -30.759637284577188,
        "lon": 11.237247098904922,
        "alt_km": 645.3380968302445,
        "timestamp": "2025-12-10T20:49:52.828561+00:00",
        "meta_object_name": "FENGYUN 1C DEB",
        "meta_object_id": "1999-025XU",
        "meta_epoch": "2025-12-10T13:21:15.463008",
        "meta_mean_motion": 14.5148723,
        "meta_eccentricity": 0.02420713,
        "meta_inclination": 98.7616,
        "meta_ra_of_asc_node": 196.1788,
        "meta_arg_of_pericenter": 274.95,
        "meta_mean_anomaly": 111.5726,
        "meta_ephemeris_type": 0,
        "meta_classification_type": "U",
        "meta_norad_cat_id": 30259,
        "meta_element_set_no": 999,
        "meta_rev_at_epoch": 99443,
        "meta_bstar": 0.00070130991,
        "meta_mean_motion_dot": 4.044e-05,
        "meta_mean_motion_ddot": 0,
        "tle_line1": "1 30259U 99025XU  25344.55642897  .00004044  00000+0  70131-3 0  9994",
        "tle_line2": "2 30259  98.7616 196.1788 0242071 274.9500 111.5726 14.51487230994438"
      },
      "geometry": {
        "type": "Point",
        "coordinates": [
          11.237247098904922,
          -30.759637284577188
        ]
      }
    },
    {
      "type": "Feature",
      "properties": {
        "norad_id": 30263,
        "name": "FENGYUN 1C DEB",
        "group": "fengyun-1c-debris",
        "lat": -45.68274705847636,
        "lon": 109.35831868551001,
        "alt_km": 829.4507620410914,
        "timestamp": "2025-12-10T20:49:52.828571+00:00",
        "meta_object_name": "FENGYUN 1C DEB",
        "meta_object_id": "1999-025XY",
        "meta_epoch": "2025-12-10T05:55:15.121056",
        "meta_mean_motion": 14.01462418,
        "meta_eccentricity": 0.0144771,
        "meta_inclination": 98.9352,
        "meta_ra_of_asc_node": 99.4781,
        "meta_arg_of_pericenter": 7.2287,
        "meta_mean_anomaly": 54.9954,
        "meta_ephemeris_type": 0,
        "meta_classification_type": "U",
        "meta_norad_cat_id": 30263,
        "meta_element_set_no": 999,
        "meta_rev_at_epoch": 95990,
        "meta_bstar": 0.0013359,
        "meta_mean_motion_dot": 2.167e-05,
        "meta_mean_motion_ddot": 0,
        "tle_line1": "1 30263U 99025XY  25344.24670279  .00002167  00000+0  13359-2 0  9992",
        "tle_line2": "2 30263  98.9352  99.4781 0144771   7.2287  54.9954 14.01462418959909"
      },
      "geometry": {
        "type": "Point",
        "coordinates": [
          109.35831868551001,
          -45.68274705847636
        ]
      }
    }
  ]
}